LUCAS (JDRS-1)          
1 47202U 20089A   26062.10525334 -.00000251  00000+0  00000+0 0  9990
2 47202   0.0642 275.4120 0002825  61.6771 312.4242  1.00273534 19356
SXM-7                   
1 47240U 20096A   26061.36850308 -.00000223  00000+0  00000+0 0  9998
2 47240   0.0187 122.0310 0004024   7.7857  77.7989  1.00275144  6375
CMS-01                  
1 47256U 20099A   26061.65864066 -.00000181  00000+0  00000+0 0  9999
2 47256   0.0149 136.5446 0006539 152.2006 191.7769  1.00272363 19136
TURKSAT 5A              
1 47306U 21001A   26062.09346661  .00000138  00000+0  00000+0 0  9995
2 47306   0.0212 100.7731 0000121 200.8426 283.8022  1.00270586 18904
TIANTONG-1 3            
1 47321U 21003A   26062.14975223 -.00000169  00000+0  00000+0 0  9997
2 47321   1.8545 333.1891 0006437 343.6351 339.5017  1.00270235 18899
TJS-6                   
1 47613U 21010A   26062.19400046  .00000027  00000+0  00000+0 0  9992
2 47613   0.3263  90.8674 0003229 282.5284  35.8827  1.00270201 18744
SBIRS GEO-5 (USA 315)   
1 48618U 21042A   26062.10594669 -.00000283  00000+0  00000+0 0  9994
2 48618   5.2386 328.3295 0001544 356.9012 327.5585  1.00271475 17702
FENGYUN 4B              
1 48808U 21047A   26062.10802670 -.00000344  00000+0  00000+0 0  9992
2 48808   0.1889  76.8981 0008832 296.5824 290.8175  1.00265595 17500
SXM-8                   
1 48838U 21049A   26061.27197234 -.00000223  00000+0  00000+0 0  9993
2 48838   0.0258  60.0583 0004221 343.6903 129.0399  1.00274439 17525
TIANLIAN 1-05           
1 49011U 21063A   26062.16193363  .00000092  00000+0  00000+0 0  9994
2 49011   1.3203  81.5896 0004670 227.1588 287.2217  1.00271110 17014
STAR ONE D2             
1 49055U 21069A   26062.13725227 -.00000281  00000+0  00000+0 0  9996
2 49055   0.0166 133.9087 0000957 195.3894 171.0177  1.00271346 16879
EUTELSAT QUANTUM        
1 49056U 21069B   26062.10530860  .00000110  00000+0  00000+0 0  9991
2 49056   0.0440 304.7611 0002954  31.4902 270.2169  1.00271903 16866
ZHONGXING-2E            
1 49062U 21071A   26061.10837824 -.00000308  00000+0  00000+0 0  9990
2 49062   0.0222 118.0356 0000198 346.5104 192.3630  1.00267704 16967
TJS-7                   
1 49115U 21077A   26062.13888017 -.00000139  00000+0  00000+0 0  9991
2 49115   0.2343  88.4059 0001731 260.2952 122.6523  1.00269774  8494
CHINASAT 9B             
1 49125U 21080A   26062.10742002 -.00000328  00000+0  00000+0 0  9996
2 49125   0.0348 262.5119 0002150  56.1495 342.2949  1.00272250 16584
SHIJIAN-21 (SJ-21)      
1 49330U 21094A   26062.21155155 -.00000361  00000+0  00000+0 0  9995
2 49330   4.8623  61.7759 0048428 171.6029 131.7130  1.00268520  4296
SES-17                  
1 49332U 21095A   26062.13725227 -.00000288  00000+0  00000+0 0  9990
2 49332   0.0247  65.5808 0001037 275.1453 162.4693  1.00269860 16792
